{
  "norad_id": 68863,
  "name": "STARLINK-37430",
  "history": [
    {
      "epoch": "2026-05-02T10:00:03.000096Z",
      "apogee_km": 270.1955961206204,
      "perigee_km": 268.57625953540173,
      "latitude_deg": -67.90627925776077,
      "longitude_deg": -72.50322916276332,
      "height_km": 295.812337361786,
      "semi_major_axis_km": 6647.52292782801,
      "eccentricity": 0.0001218,
      "inclination_deg": 97.2811,
      "raan_deg": 136.0828,
      "arg_perigee_deg": 81.9475,
      "mean_anomaly_deg": 166.9476,
      "mean_motion_rev_day": 16.0181736
    }
  ]
}