{"fetched_at":"2026-05-03T09:24:26Z","count":17359,"tles":[{"name":"STARLINK-37430","line1":"1 68863U 26094AA  26122.41670139 -.01708674  90392-3 -30661-2 0  9995","line2":"2 68863  97.2811 136.0828 0001218  81.9475 166.9476 16.01817360  2009","category":"Starlink"}]}